ONEWEB-0706             
1 61611U 24188T   25293.14420495 -.00000571  00000+0 -16718-2 0  9997
2 61611  87.8758  84.1246 0002232  88.1825 271.9558 13.10372368 51946
ONEWEB-0707             
1 61612U 24188U   25293.07448844 -.00000436  00000+0 -12861-2 0  9993
2 61612  87.8776  84.1087 0002195  91.0797 269.0582 13.10373851 51874
ONEWEB-0708             
1 61613U 24188V   25292.94004000  .00000401  00000+0  11117-2 0  9994
2 61613  87.8765  84.1770 0001674  74.0830 286.0482 13.10367426 51837
